ONEWEB-0136             
1 47282U 20100AA  24241.56974274  .00000224  00000+0  58713-3 0  9997
2 47282  87.8913 121.6176 0001760  93.4765 266.6565 13.12446052178407
ONEWEB-0137             
1 47283U 20100AB  24241.37509954 -.00000048  00000+0 -16805-3 0  9998
2 47283  87.8907 121.6778 0001934  78.5208 281.6138 13.12439992178282
ONEWEB-0138             
1 47284U 20100AC  24241.43026171  .00000484  00000+0  13098-2 0  9993
2 47284  87.8910 121.6791 0001818  82.1952 277.9382 13.12441921178374
ONEWEB-0139             
1 47285U 20100AD  24241.39307195 -.00000403  00000+0 -11543-2 0  9993
2 47285  87.8915 121.6593 0001804  77.9997 282.1333 13.12440426178447
ONEWEB-0140             
1 47286U 20100AE  24241.42377443  .00000412  00000+0  11102-2 0  9990
2 47286  87.8909 121.6562 0001710  82.1947 277.9376 13.12442389178412
ONEWEB-0141             
1 47287U 20100AF  24241.39279544 -.00000387  00000+0 -11104-2 0  9995
2 47287  87.8911 121.6747 0001926  74.0704 286.0636 13.12441135178396
ONEWEB-0142             
1 47288U 20100AG  24241.36130814  .00000369  00000+0  98981-3 0  9996
2 47288  87.8908 121.6621 0002072  81.4303 278.7060 13.12441138178385
ONEWEB-0143             
1 47289U 20100AH  24241.23883738 -.00000376  00000+0 -10815-2 0  9992
2 47289  87.8912 121.7076 0001738  75.9029 284.2293 13.12441133178348
